FLOCK 4G-18             
1 62680U 25009BZ  26068.19114186  .00011766  00000+0  44319-3 0  9995
2 62680  97.4054 150.5008 0004100 335.7331  24.3715 15.27241676121267
STARLINK-36434          
1 67322U 26002T   26068.15499568  .00033696  00000+0  12314-2 0  9998
2 67322  43.0012 328.5885 0001160 309.9605  50.1144 15.27498947 10991
